{
  "type": "FeatureCollection",
  "features": [
    {
      "type": "Feature",
      "properties": {
        "norad_id": 29985,
        "name": "FENGYUN 1C DEB",
        "group": "fengyun-1c-debris",
        "lat": -1.3207684817992063,
        "lon": 0.18959052721551573,
        "alt_km": 877.8048720487432,
        "timestamp": "2025-12-10T20:49:52.826506+00:00",
        "meta_object_name": "FENGYUN 1C DEB",
        "meta_object_id": "1999-025LK",
        "meta_epoch": "2025-12-10T12:54:29.100384",
        "meta_mean_motion": 14.10323262,
        "meta_eccentricity": 0.00280375,
        "meta_inclination": 98.7107,
        "meta_ra_of_asc_node": 359.6673,
        "meta_arg_of_pericenter": 215.3808,
        "meta_mean_anomaly": 267.9953,
        "meta_ephemeris_type": 0,
        "meta_classification_type": "U",
        "meta_norad_cat_id": 29985,
        "meta_element_set_no": 999,
        "meta_rev_at_epoch": 97317,
        "meta_bstar": 3.6137554e-05,
        "meta_mean_motion_dot": 2.2e-07,
        "meta_mean_motion_ddot": 0,
        "tle_line1": "1 29985U 99025LK  25344.53783681  .00000022  00000+0  36138-4 0  9995",
        "tle_line2": "2 29985  98.7107 359.6673 0028037 215.3808 267.9953 14.10323262973175"
      },
      "geometry": {
        "type": "Point",
        "coordinates": [
          0.18959052721551573,
          -1.3207684817992063
        ]
      }
    },
    {
      "type": "Feature",
      "properties": {
        "norad_id": 29986,
        "name": "FENGYUN 1C DEB",
        "group": "fengyun-1c-debris",
        "lat": -24.646026104352025,
        "lon": -131.96858457926615,
        "alt_km": 815.1619432226198,
        "timestamp": "2025-12-10T20:49:52.826516+00:00",
        "meta_object_name": "FENGYUN 1C DEB",
        "meta_object_id": "1999-025LL",
        "meta_epoch": "2025-12-10T03:21:34.064640",
        "meta_mean_motion": 14.29185488,
        "meta_eccentricity": 0.00228071,
        "meta_inclination": 99.3976,
        "meta_ra_of_asc_node": 51.605,
        "meta_arg_of_pericenter": 5.7155,
        "meta_mean_anomaly": 55.7629,
        "meta_ephemeris_type": 0,
        "meta_classification_type": "U",
        "meta_norad_cat_id": 29986,
        "meta_element_set_no": 999,
        "meta_rev_at_epoch": 97470,
        "meta_bstar": 0.0021813777,
        "meta_mean_motion_dot": 5.507e-05,
        "meta_mean_motion_ddot": 0,
        "tle_line1": "1 29986U 99025LL  25344.13997760  .00005507  00000+0  21814-2 0  9993",
        "tle_line2": "2 29986  99.3976  51.6050 0022807   5.7155  55.7629 14.29185488974709"
      },
      "geometry": {
        "type": "Point",
        "coordinates": [
          -131.96858457926615,
          -24.646026104352025
        ]
      }
    },
    {
      "type": "Feature",
      "properties": {
        "norad_id": 29987,
        "name": "FENGYUN 1C DEB",
        "group": "fengyun-1c-debris",
        "lat": -76.27945705535619,
        "lon": 16.948924231189277,
        "alt_km": 797.2074834364275,
        "timestamp": "2025-12-10T20:49:52.826526+00:00",
        "meta_object_name": "FENGYUN 1C DEB",
        "meta_object_id": "1999-025LM",
        "meta_epoch": "2025-12-10T04:56:31.556256",
        "meta_mean_motion": 14.14506039,
        "meta_eccentricity": 0.0079769,
        "meta_inclination": 98.8971,
        "meta_ra_of_asc_node": 236.1989,
        "meta_arg_of_pericenter": 240.9559,
        "meta_mean_anomaly": 248.7749,
        "meta_ephemeris_type": 0,
        "meta_classification_type": "U",
        "meta_norad_cat_id": 29987,
        "meta_element_set_no": 999,
        "meta_rev_at_epoch": 96337,
        "meta_bstar": 0.0036206,
        "meta_mean_motion_dot": 7.12e-05,
        "meta_mean_motion_ddot": 0,
        "tle_line1": "1 29987U 99025LM  25344.20592079  .00007120  00000+0  36206-2 0  9990",
        "tle_line2": "2 29987  98.8971 236.1989 0079769 240.9559 248.7749 14.14506039963371"
      },
      "geometry": {
        "type": "Point",
        "coordinates": [
          16.948924231189277,
          -76.27945705535619
        ]
      }
    },
    {
      "type": "Feature",
      "properties": {
        "norad_id": 29988,
        "name": "FENGYUN 1C DEB",
        "group": "fengyun-1c-debris",
        "lat": 40.066524261434,
        "lon": 81.3150611118163,
        "alt_km": 639.1151394953195,
        "timestamp": "2025-12-10T20:49:52.826536+00:00",
        "meta_object_name": "FENGYUN 1C DEB",
        "meta_object_id": "1999-025LN",
        "meta_epoch": "2025-12-10T05:53:03.278112",
        "meta_mean_motion": 14.50332936,
        "meta_eccentricity": 0.0120766,
        "meta_inclination": 98.6952,
        "meta_ra_of_asc_node": 88.0675,
        "meta_arg_of_pericenter": 25.939,
        "meta_mean_anomaly": 4.5156,
        "meta_ephemeris_type": 0,
        "meta_classification_type": "U",
        "meta_norad_cat_id": 29988,
        "meta_element_set_no": 999,
        "meta_rev_at_epoch": 98031,
        "meta_bstar": 0.0021844,
        "meta_mean_motion_dot": 9.315e-05,
        "meta_mean_motion_ddot": 0,
        "tle_line1": "1 29988U 99025LN  25344.24517683  .00009315  00000+0  21844-2 0  9993",
        "tle_line2": "2 29988  98.6952  88.0675 0120766  25.9390   4.5156 14.50332936980319"
      },
      "geometry": {
        "type": "Point",
        "coordinates": [
          81.3150611118163,
          40.066524261434
        ]
      }
    },
    {
      "type": "Feature",
      "properties": {
        "norad_id": 29989,
        "name": "FENGYUN 1C DEB",
        "group": "fengyun-1c-debris",
        "lat": -10.386297434909203,
        "lon": 142.10632553019704,
        "alt_km": 756.3085724239409,
        "timestamp": "2025-12-10T20:49:52.826546+00:00",
        "meta_object_name": "FENGYUN 1C DEB",
        "meta_object_id": "1999-025LP",
        "meta_epoch": "2025-12-10T12:03:47.142144",
        "meta_mean_motion": 14.15816952,
        "meta_eccentricity": 0.01231173,
        "meta_inclination": 98.6676,
        "meta_ra_of_asc_node": 323.353,
        "meta_arg_of_pericenter": 202.0845,
        "meta_mean_anomaly": 287.4751,
        "meta_ephemeris_type": 0,
        "meta_classification_type": "U",
        "meta_norad_cat_id": 29989,
        "meta_element_set_no": 999,
        "meta_rev_at_epoch": 97579,
        "meta_bstar": 0.00022968066,
        "meta_mean_motion_dot": 4.43e-06,
        "meta_mean_motion_ddot": 0,
        "tle_line1": "1 29989U 99025LP  25344.50262896  .00000443  00000+0  22968-3 0  9998",
        "tle_line2": "2 29989  98.6676 323.3530 0123117 202.0845 287.4751 14.15816952975799"
      },
      "geometry": {
        "type": "Point",
        "coordinates": [
          142.10632553019704,
          -10.386297434909203
        ]
      }
    },
    {
      "type": "Feature",
      "properties": {
        "norad_id": 29992,
        "name": "FENGYUN 1C DEB",
        "group": "fengyun-1c-debris",
        "lat": 77.51108554172565,
        "lon": -63.87211713058783,
        "alt_km": 848.1080924549005,
        "timestamp": "2025-12-10T20:49:52.826556+00:00",
        "meta_object_name": "FENGYUN 1C DEB",
        "meta_object_id": "1999-025LS",
        "meta_epoch": "2025-12-10T12:29:45.575232",
        "meta_mean_motion": 14.11610343,
        "meta_eccentricity": 0.00887472,
        "meta_inclination": 98.7299,
        "meta_ra_of_asc_node": 339.7151,
        "meta_arg_of_pericenter": 173.9266,
        "meta_mean_anomaly": 304.1925,
        "meta_ephemeris_type": 0,
        "meta_classification_type": "U",
        "meta_norad_cat_id": 29992,
        "meta_element_set_no": 999,
        "meta_rev_at_epoch": 97356,
        "meta_bstar": 0.00015748411,
        "meta_mean_motion_dot": 2.54e-06,
        "meta_mean_motion_ddot": 0,
        "tle_line1": "1 29992U 99025LS  25344.52066638  .00000254  00000+0  15748-3 0  9998",
        "tle_line2": "2 29992  98.7299 339.7151 0088747 173.9266 304.1925 14.11610343973562"
      },
      "geometry": {
        "type": "Point",
        "coordinates": [
          -63.87211713058783,
          77.51108554172565
        ]
      }
    },
    {
      "type": "Feature",
      "properties": {
        "norad_id": 29993,
        "name": "FENGYUN 1C DEB",
        "group": "fengyun-1c-debris",
        "lat": 66.41771823387322,
        "lon": 0.8804555790767041,
        "alt_km": 867.7165572424719,
        "timestamp": "2025-12-10T20:49:52.826567+00:00",
        "meta_object_name": "FENGYUN 1C DEB",
        "meta_object_id": "1999-025LT",
        "meta_epoch": "2025-12-10T08:34:22.518048",
        "meta_mean_motion": 14.08147237,
        "meta_eccentricity": 0.00385569,
        "meta_inclination": 98.7936,
        "meta_ra_of_asc_node": 21.1519,
        "meta_arg_of_pericenter": 321.5682,
        "meta_mean_anomaly": 38.2743,
        "meta_ephemeris_type": 0,
        "meta_classification_type": "U",
        "meta_norad_cat_id": 29993,
        "meta_element_set_no": 999,
        "meta_rev_at_epoch": 97136,
        "meta_bstar": 5.6016567e-05,
        "meta_mean_motion_dot": 5.3e-07,
        "meta_mean_motion_ddot": 0,
        "tle_line1": "1 29993U 99025LT  25344.35720507  .00000053  00000+0  56017-4 0  9994",
        "tle_line2": "2 29993  98.7936  21.1519 0038556 321.5682  38.2743 14.08147237971369"
      },
      "geometry": {
        "type": "Point",
        "coordinates": [
          0.8804555790767041,
          66.41771823387322
        ]
      }
    }
  ]
}